CCSDS_OMM_VERS = 2.0
CREATION_DATE  = 
ORIGINATOR     = 

OBJECT_NAME    = HTV-X1
OBJECT_ID      = 2025-241A
CENTER_NAME    = EARTH
REF_FRAME      = TEME
TIME_SYSTEM    = UTC
MEAN_ELEMENT_THEORY = SGP/SGP4

EPOCH          = 2026-03-14T08:15:41.718240
MEAN_MOTION    = 15.22910005
ECCENTRICITY   = .00057324
INCLINATION    = 51.6357
RA_OF_ASC_NODE = 50.7100
ARG_OF_PERICENTER = 187.3443
MEAN_ANOMALY   = 172.7451

EPHEMERIS_TYPE = 0
CLASSIFICATION_TYPE = U
NORAD_CAT_ID   = 66174
ELEMENT_SET_NO = 999
REV_AT_EPOCH   = 2166
BSTAR          = .5679389E-3
MEAN_MOTION_DOT = .13198E-3
MEAN_MOTION_DDOT = 0

CCSDS_OMM_VERS = 2.0
CREATION_DATE  = 
ORIGINATOR     = 

OBJECT_NAME    = SZ-21 MODULE
OBJECT_ID      = 2025-246C
CENTER_NAME    = EARTH
REF_FRAME      = TEME
TIME_SYSTEM    = UTC
MEAN_ELEMENT_THEORY = SGP/SGP4

EPOCH          = 2026-03-19T13:23:07.005408
MEAN_MOTION    = 15.69284939
ECCENTRICITY   = .00003857
INCLINATION    = 41.4733
RA_OF_ASC_NODE = 142.5807
ARG_OF_PERICENTER = 277.1861
MEAN_ANOMALY   = 82.8937

EPHEMERIS_TYPE = 0
CLASSIFICATION_TYPE = U
NORAD_CAT_ID   = 66515
ELEMENT_SET_NO = 999
REV_AT_EPOCH   = 1962
BSTAR          = .23011364E-3
MEAN_MOTION_DOT = .27418E-3
MEAN_MOTION_DDOT = 0

CCSDS_OMM_VERS = 2.0
CREATION_DATE  = 
ORIGINATOR     = 

OBJECT_NAME    = SHENZHOU-22
OBJECT_ID      = 2025-272A
CENTER_NAME    = EARTH
REF_FRAME      = TEME
TIME_SYSTEM    = UTC
MEAN_ELEMENT_THEORY = SGP/SGP4

EPOCH          = 2026-03-19T22:51:28.642176
MEAN_MOTION    = 15.61194072
ECCENTRICITY   = .00057576
INCLINATION    = 41.4666
RA_OF_ASC_NODE = 145.6913
ARG_OF_PERICENTER = 337.4342
MEAN_ANOMALY   = 22.6243

EPHEMERIS_TYPE = 0
CLASSIFICATION_TYPE = U
NORAD_CAT_ID   = 66645
ELEMENT_SET_NO = 999
REV_AT_EPOCH   = 27910
BSTAR          = .25068156E-3
MEAN_MOTION_DOT = .21562E-3
MEAN_MOTION_DDOT = 0

CCSDS_OMM_VERS = 2.0
CREATION_DATE  = 
ORIGINATOR     = 

OBJECT_NAME    = SOYUZ-MS 28
OBJECT_ID      = 2025-275A
CENTER_NAME    = EARTH
REF_FRAME      = TEME
TIME_SYSTEM    = UTC
MEAN_ELEMENT_THEORY = SGP/SGP4

EPOCH          = 2026-03-19T20:08:56.007168
MEAN_MOTION    = 15.48385427
ECCENTRICITY   = .00062419
INCLINATION    = 51.6344
RA_OF_ASC_NODE = 22.1830
ARG_OF_PERICENTER = 209.8635
MEAN_ANOMALY   = 150.1998

EPHEMERIS_TYPE = 0
CLASSIFICATION_TYPE = U
NORAD_CAT_ID   = 66664
ELEMENT_SET_NO = 999
REV_AT_EPOCH   = 55771
BSTAR          = .19744557E-3
MEAN_MOTION_DOT = .10217E-3
MEAN_MOTION_DDOT = 0

CCSDS_OMM_VERS = 2.0
CREATION_DATE  = 
ORIGINATOR     = 

OBJECT_NAME    = DUPLEX
OBJECT_ID      = 1998-067XS
CENTER_NAME    = EARTH
REF_FRAME      = TEME
TIME_SYSTEM    = UTC
MEAN_ELEMENT_THEORY = SGP/SGP4

EPOCH          = 2026-03-19T22:08:32.531136
MEAN_MOTION    = 15.56842635
ECCENTRICITY   = .00030306
INCLINATION    = 51.6307
RA_OF_ASC_NODE = 18.2416
ARG_OF_PERICENTER = 155.0634
MEAN_ANOMALY   = 205.0504

EPHEMERIS_TYPE = 0
CLASSIFICATION_TYPE = U
NORAD_CAT_ID   = 66906
ELEMENT_SET_NO = 999
REV_AT_EPOCH   = 1672
BSTAR          = .36596208E-3
MEAN_MOTION_DOT = .26371E-3
MEAN_MOTION_DDOT = 0

CCSDS_OMM_VERS = 2.0
CREATION_DATE  = 
ORIGINATOR     = 

OBJECT_NAME    = ISS OBJECT XT
OBJECT_ID      = 1998-067XT
CENTER_NAME    = EARTH
REF_FRAME      = TEME
TIME_SYSTEM    = UTC
MEAN_ELEMENT_THEORY = SGP/SGP4

EPOCH          = 2026-03-19T19:47:02.454144
MEAN_MOTION    = 15.72578849
ECCENTRICITY   = .00051475
INCLINATION    = 51.6264
RA_OF_ASC_NODE = 13.8111
ARG_OF_PERICENTER = 145.9333
MEAN_ANOMALY   = 214.1997

EPHEMERIS_TYPE = 0
CLASSIFICATION_TYPE = U
NORAD_CAT_ID   = 66907
ELEMENT_SET_NO = 999
REV_AT_EPOCH   = 1677
BSTAR          = .10448808E-2
MEAN_MOTION_DOT = .145011E-2
MEAN_MOTION_DDOT = 0

CCSDS_OMM_VERS = 2.0
CREATION_DATE  = 
ORIGINATOR     = 

OBJECT_NAME    = ISS OBJECT XU
OBJECT_ID      = 1998-067XU
CENTER_NAME    = EARTH
REF_FRAME      = TEME
TIME_SYSTEM    = UTC
MEAN_ELEMENT_THEORY = SGP/SGP4

EPOCH          = 2026-03-19T05:59:38.277312
MEAN_MOTION    = 15.72572321
ECCENTRICITY   = .00053977
INCLINATION    = 51.6254
RA_OF_ASC_NODE = 16.7197
ARG_OF_PERICENTER = 143.2068
MEAN_ANOMALY   = 216.9301

EPHEMERIS_TYPE = 0
CLASSIFICATION_TYPE = U
NORAD_CAT_ID   = 66908
ELEMENT_SET_NO = 999
REV_AT_EPOCH   = 1668
BSTAR          = .10071021E-2
MEAN_MOTION_DOT = .139626E-2
MEAN_MOTION_DDOT = 0

CCSDS_OMM_VERS = 2.0
CREATION_DATE  = 
ORIGINATOR     = 

OBJECT_NAME    = SILVERSAT
OBJECT_ID      = 1998-067XV
CENTER_NAME    = EARTH
REF_FRAME      = TEME
TIME_SYSTEM    = UTC
MEAN_ELEMENT_THEORY = SGP/SGP4

EPOCH          = 2026-03-19T19:13:45.217920
MEAN_MOTION    = 15.76583091
ECCENTRICITY   = .00058215
INCLINATION    = 51.6240
RA_OF_ASC_NODE = 12.8961
ARG_OF_PERICENTER = 149.3887
MEAN_ANOMALY   = 210.7453

EPHEMERIS_TYPE = 0
CLASSIFICATION_TYPE = U
NORAD_CAT_ID   = 66909
ELEMENT_SET_NO = 999
REV_AT_EPOCH   = 1678
BSTAR          = .11450859E-2
MEAN_MOTION_DOT = .190248E-2
MEAN_MOTION_DDOT = 0

CCSDS_OMM_VERS = 2.0
CREATION_DATE  = 
ORIGINATOR     = 

OBJECT_NAME    = ISS OBJECT XW
OBJECT_ID      = 1998-067XW
CENTER_NAME    = EARTH
REF_FRAME      = TEME
TIME_SYSTEM    = UTC
MEAN_ELEMENT_THEORY = SGP/SGP4

EPOCH          = 2026-03-19T06:03:12.658176
MEAN_MOTION    = 15.71452835
ECCENTRICITY   = .00057567
INCLINATION    = 51.6251
RA_OF_ASC_NODE = 16.7321
ARG_OF_PERICENTER = 144.7614
MEAN_ANOMALY   = 215.3766

EPHEMERIS_TYPE = 0
CLASSIFICATION_TYPE = U
NORAD_CAT_ID   = 66910
ELEMENT_SET_NO = 999
REV_AT_EPOCH   = 1668
BSTAR          = .92850308E-3
MEAN_MOTION_DOT = .122466E-2
MEAN_MOTION_DDOT = 0

CCSDS_OMM_VERS = 2.0
CREATION_DATE  = 
ORIGINATOR     = 

OBJECT_NAME    = ISS OBJECT XX
OBJECT_ID      = 1998-067XX
CENTER_NAME    = EARTH
REF_FRAME      = TEME
TIME_SYSTEM    = UTC
MEAN_ELEMENT_THEORY = SGP/SGP4

EPOCH          = 2026-03-19T20:05:20.840928
MEAN_MOTION    = 15.81078995
ECCENTRICITY   = .00074989
INCLINATION    = 51.6211
RA_OF_ASC_NODE = 11.6083
ARG_OF_PERICENTER = 153.2319
MEAN_ANOMALY   = 206.9071

EPHEMERIS_TYPE = 0
CLASSIFICATION_TYPE = U
NORAD_CAT_ID   = 66911
ELEMENT_SET_NO = 999
REV_AT_EPOCH   = 1679
BSTAR          = .12437773E-2
MEAN_MOTION_DOT = .255412E-2
MEAN_MOTION_DDOT = 0

CCSDS_OMM_VERS = 2.0
CREATION_DATE  = 
ORIGINATOR     = 

OBJECT_NAME    = ISS OBJECT XY
OBJECT_ID      = 1998-067XY
CENTER_NAME    = EARTH
REF_FRAME      = TEME
TIME_SYSTEM    = UTC
MEAN_ELEMENT_THEORY = SGP/SGP4

EPOCH          = 2026-03-19T20:44:29.713920
MEAN_MOTION    = 15.65608393
ECCENTRICITY   = .00037273
INCLINATION    = 51.6285
RA_OF_ASC_NODE = 15.5932
ARG_OF_PERICENTER = 149.4473
MEAN_ANOMALY   = 210.6741

EPHEMERIS_TYPE = 0
CLASSIFICATION_TYPE = U
NORAD_CAT_ID   = 66912
ELEMENT_SET_NO = 999
REV_AT_EPOCH   = 1674
BSTAR          = .76579891E-3
MEAN_MOTION_DOT = .78834E-3
MEAN_MOTION_DDOT = 0

CCSDS_OMM_VERS = 2.0
CREATION_DATE  = 
ORIGINATOR     = 

OBJECT_NAME    = KNACKSAT-2
OBJECT_ID      = 1998-067XZ
CENTER_NAME    = EARTH
REF_FRAME      = TEME
TIME_SYSTEM    = UTC
MEAN_ELEMENT_THEORY = SGP/SGP4

EPOCH          = 2026-03-19T21:35:21.738624
MEAN_MOTION    = 15.52629641
ECCENTRICITY   = .00097309
INCLINATION    = 51.6326
RA_OF_ASC_NODE = 21.0860
ARG_OF_PERICENTER = 222.0141
MEAN_ANOMALY   = 138.0103

EPHEMERIS_TYPE = 0
CLASSIFICATION_TYPE = U
NORAD_CAT_ID   = 67683
ELEMENT_SET_NO = 999
REV_AT_EPOCH   = 637
BSTAR          = .52879786E-3
MEAN_MOTION_DOT = .32874E-3
MEAN_MOTION_DDOT = 0

