HTV-X1                  
1 66174U 25241A   26073.34423285  .00013198  00000+0  56794-3 0  9992
2 66174  51.6357  50.7100 0005732 187.3443 172.7451 15.22910005 21660
SZ-21 MODULE            
1 66515U 25246C   26078.55771997  .00027418  00000+0  23011-3 0  9996
2 66515  41.4733 142.5807 0000385 277.1861  82.8937 15.69284939 19623
SHENZHOU-22             
1 66645U 25272A   26078.95241484  .00021562  00000+0  25068-3 0  9994
2 66645  41.4666 145.6913 0005757 337.4342  22.6243 15.61194072279109
SOYUZ-MS 28             
1 66664U 25275A   26078.83953712  .00010217  00000+0  19745-3 0  9999
2 66664  51.6344  22.1830 0006241 209.8635 150.1998 15.48385427557710
DUPLEX                  
1 66906U 98067XS  26078.92259874  .00026371  00000+0  36596-3 0  9996
2 66906  51.6307  18.2416 0003030 155.0634 205.0504 15.56842635 16720
ISS OBJECT XT           
1 66907U 98067XT  26078.82433396  .00145011  00000+0  10449-2 0  9990
2 66907  51.6264  13.8111 0005147 145.9333 214.1997 15.72578849 16774
ISS OBJECT XU           
1 66908U 98067XU  26078.24974858  .00139626  00000+0  10071-2 0  9996
2 66908  51.6254  16.7197 0005397 143.2068 216.9301 15.72572321 16681
SILVERSAT               
1 66909U 98067XV  26078.80121780  .00190248  00000+0  11451-2 0  9997
2 66909  51.6240  12.8961 0005821 149.3887 210.7453 15.76583091 16782
ISS OBJECT XW           
1 66910U 98067XW  26078.25222984  .00122466  00000+0  92850-3 0  9996
2 66910  51.6251  16.7321 0005756 144.7614 215.3766 15.71452835 16686
ISS OBJECT XX           
1 66911U 98067XX  26078.83704677  .00255412  00000+0  12438-2 0  9996
2 66911  51.6211  11.6083 0007498 153.2319 206.9071 15.81078995 16793
ISS OBJECT XY           
1 66912U 98067XY  26078.86423280  .00078834  00000+0  76580-3 0  9998
2 66912  51.6285  15.5932 0003727 149.4473 210.6741 15.65608393 16744
KNACKSAT-2              
1 67683U 98067XZ  26078.89955716  .00032874  00000+0  52880-3 0  9992
2 67683  51.6326  21.0860 0009730 222.0141 138.0103 15.52629641  6376
